*******************************************************************************
 Revised: April 12, 2021         Uranus Barycenter                            7
 
 Dynamical point:
 ---------------
 The location of the center-of-mass of the Uranus system. The point about 
 which Uranus and its satellites revolve. See 799 for Uranus center.
*******************************************************************************


*******************************************************************************
Ephemeris / WWW_USER Thu Aug 25 21:07:11 2022 Pasadena, USA      / Horizons
*******************************************************************************
Target body name: Uranus Barycenter (7)           {source: DE441}
Center body name: Solar System Barycenter (0)     {source: DE441}
Center-site name: BODY CENTER
*******************************************************************************
Start time      : A.D. 2022-Aug-25 00:00:00.0000 TDB
Stop  time      : A.D. 2022-Sep-24 00:00:00.0000 TDB
Step-size       : 1440 minutes
*******************************************************************************
Center geodetic : 0.00000000,0.00000000,0.0000000 {E-lon(deg),Lat(deg),Alt(km)}
Center cylindric: 0.00000000,0.00000000,0.0000000 {E-lon(deg),Dxy(km),Dz(km)}
Center radii    : (undefined)                                                  
Output units    : KM-S
Output type     : GEOMETRIC cartesian states
Output format   : 3 (position, velocity, LT, range, range-rate)
Reference frame : Ecliptic of J2000.0
*******************************************************************************
JDTDB
   X     Y     Z
   VX    VY    VZ
   LT    RG    RR
*******************************************************************************
$$SOE
2459816.500000000 = A.D. 2022-Aug-25 00:00:00.0000 TDB 
 X = 2.054323644596653E+09 Y = 2.109541774935745E+09 Z =-1.877923137719142E+07
 VX=-4.928807352373894E+00 VY= 4.433890087817934E+00 VZ= 8.032106715888987E-02
 LT= 9.822182515525843E+03 RG= 2.944616239254116E+09 RR=-2.626479727689788E-01
2459817.500000000 = A.D. 2022-Aug-26 00:00:00.0000 TDB 
 X = 2.053897755751045E+09 Y = 2.109924822066306E+09 Z =-1.877229127243829E+07
 VX=-4.929730712104451E+00 VY= 4.432941605670011E+00 VZ= 8.032950534016181E-02
 LT= 9.822106815367546E+03 RG= 2.944593544917589E+09 RR=-2.626838898298173E-01
2459818.500000000 = A.D. 2022-Aug-27 00:00:00.0000 TDB 
 X = 2.053471787134494E+09 Y = 2.110307787239597E+09 Z =-1.876535043875301E+07
 VX=-4.930653901972296E+00 VY= 4.431992928781632E+00 VZ= 8.033794058984678E-02
 LT= 9.822031104859227E+03 RG= 2.944570847478203E+09 RR=-2.627197981998740E-01
2459819.500000000 = A.D. 2022-Aug-28 00:00:00.0000 TDB 
 X = 2.053045738761678E+09 Y = 2.110690670438792E+09 Z =-1.875840887638891E+07
 VX=-4.931576921937793E+00 VY= 4.431044057177768E+00 VZ= 8.034637290750979E-02
 LT= 9.821955384003390E+03 RG= 2.944548146936710E+09 RR=-2.627556978788330E-01
2459820.500000000 = A.D. 2022-Aug-29 00:00:00.0000 TDB 
 X = 2.052619610647277E+09 Y = 2.111073471647070E+09 Z =-1.875146658559906E+07
 VX=-4.932499771961306E+00 VY= 4.430094990883408E+00 VZ= 8.035480229271608E-02
 LT= 9.821879652802540E+03 RG= 2.944525443293860E+09 RR=-2.627915888663737E-01
2459821.500000000 = A.D. 2022-Aug-30 00:00:00.0000 TDB 
 X = 2.052193402805978E+09 Y = 2.111456190847610E+09 Z =-1.874452356663692E+07
 VX=-4.933422452003202E+00 VY= 4.429145729923550E+00 VZ= 8.036322874503066E-02
 LT= 9.821803911259183E+03 RG= 2.944502736550404E+09 RR=-2.628274711621689E-01
2459822.500000000 = A.D. 2022-Aug-31 00:00:00.0000 TDB 
 X = 2.051767115252468E+09 Y = 2.111838828023595E+09 Z =-1.873757981975639E+07
 VX=-4.934344962023851E+00 VY= 4.428196274323211E+00 VZ= 8.037165226401832E-02
 LT= 9.821728159375822E+03 RG= 2.944480026707094E+09 RR=-2.628633447658902E-01
2459823.500000000 = A.D. 2022-Sep-01 00:00:00.0000 TDB 
 X = 2.051340748001438E+09 Y = 2.112221383158208E+09 Z =-1.873063534521043E+07
 VX=-4.935267301983629E+00 VY= 4.427246624107414E+00 VZ= 8.038007284924520E-02
 LT= 9.821652397154965E+03 RG= 2.944457313764679E+09 RR=-2.628992096772136E-01
2459824.500000000 = A.D. 2022-Sep-02 00:00:00.0000 TDB 
 X = 2.050914301067584E+09 Y = 2.112603856234637E+09 Z =-1.872369014325249E+07
 VX=-4.936189471842912E+00 VY= 4.426296779301203E+00 VZ= 8.038849050027674E-02
 LT= 9.821576624599114E+03 RG= 2.944434597723911E+09 RR=-2.629350658957999E-01
2459825.500000000 = A.D. 2022-Sep-03 00:00:00.0000 TDB 
 X = 2.050487774465604E+09 Y = 2.112986247236068E+09 Z =-1.871674421413660E+07
 VX=-4.937111471562177E+00 VY= 4.425346739929723E+00 VZ= 8.039690521665799E-02
 LT= 9.821500841710778E+03 RG= 2.944411878585543E+09 RR=-2.629709134213123E-01
2459826.500000000 = A.D. 2022-Sep-04 00:00:00.0000 TDB 
 X = 2.050061168210199E+09 Y = 2.113368556145694E+09 Z =-1.870979755811584E+07
 VX=-4.938033301101657E+00 VY= 4.424396506018027E+00 VZ= 8.040531699795994E-02
 LT= 9.821425048492458E+03 RG= 2.944389156350323E+09 RR=-2.630067522533187E-01
2459827.500000000 = A.D. 2022-Sep-05 00:00:00.0000 TDB 
 X = 2.049634482316076E+09 Y = 2.113750782946706E+09 Z =-1.870285017544377E+07
 VX=-4.938954960421749E+00 VY= 4.423446077591202E+00 VZ= 8.041372584374717E-02
 LT= 9.821349244946663E+03 RG= 2.944366431019004E+09 RR=-2.630425823914748E-01
2459828.500000000 = A.D. 2022-Sep-06 00:00:00.0000 TDB 
 X = 2.049207716797942E+09 Y = 2.114132927622300E+09 Z =-1.869590206637442E+07
 VX=-4.939876449482854E+00 VY= 4.422495454674361E+00 VZ= 8.042213175358581E-02
 LT= 9.821273431075897E+03 RG= 2.944343702592336E+09 RR=-2.630784038354305E-01
2459829.500000000 = A.D. 2022-Sep-07 00:00:00.0000 TDB 
 X = 2.048780871670510E+09 Y = 2.114514990155674E+09 Z =-1.868895323116136E+07
 VX=-4.940797768245363E+00 VY= 4.421544637292627E+00 VZ= 8.043053472704198E-02
 LT= 9.821197606882664E+03 RG= 2.944320971071072E+09 RR=-2.631142165848214E-01
2459830.500000000 = A.D. 2022-Sep-08 00:00:00.0000 TDB 
 X = 2.048353946948495E+09 Y = 2.114896970530025E+09 Z =-1.868200367005825E+07
 VX=-4.941718916669680E+00 VY= 4.420593625471144E+00 VZ= 8.043893476368069E-02
 LT= 9.821121772369474E+03 RG= 2.944298236455960E+09 RR=-2.631500206392828E-01
2459831.500000000 = A.D. 2022-Sep-09 00:00:00.0000 TDB 
 X = 2.047926942646616E+09 Y = 2.115278868728556E+09 Z =-1.867505338331878E+07
 VX=-4.942639894716200E+00 VY= 4.419642419235069E+00 VZ= 8.044733186307007E-02
 LT= 9.821045927538831E+03 RG= 2.944275498747756E+09 RR=-2.631858159984379E-01
2459832.500000000 = A.D. 2022-Sep-10 00:00:00.0000 TDB 
 X = 2.047499858779596E+09 Y = 2.115660684734470E+09 Z =-1.866810237119687E+07
 VX=-4.943560702345322E+00 VY= 4.418691018609579E+00 VZ= 8.045572602477491E-02
 LT= 9.820970072393238E+03 RG= 2.944252757947206E+09 RR=-2.632216026619030E-01
2459833.500000000 = A.D. 2022-Sep-11 00:00:00.0000 TDB 
 X = 2.047072695362160E+09 Y = 2.116042418530974E+09 Z =-1.866115063394642E+07
 VX=-4.944481339517447E+00 VY= 4.417739423619869E+00 VZ= 8.046411724836311E-02
 LT= 9.820894206935207E+03 RG= 2.944230014055066E+09 RR=-2.632573806292864E-01
2459834.500000000 = A.D. 2022-Sep-12 00:00:00.0000 TDB 
 X = 2.046645452409037E+09 Y = 2.116424070101274E+09 Z =-1.865419817182100E+07
 VX=-4.945401806192967E+00 VY= 4.416787634291145E+00 VZ= 8.047250553340124E-02
 LT= 9.820818331167238E+03 RG= 2.944207267072084E+09 RR=-2.632931499001884E-01
2459835.500000000 = A.D. 2022-Sep-13 00:00:00.0000 TDB 
 X = 2.046218129934961E+09 Y = 2.116805639428583E+09 Z =-1.864724498507476E+07
 VX=-4.946322102332288E+00 VY= 4.415835650648637E+00 VZ= 8.048089087945542E-02
 LT= 9.820742445091842E+03 RG= 2.944184516999013E+09 RR=-2.633289104742023E-01
2459836.500000000 = A.D. 2022-Sep-14 00:00:00.0000 TDB 
 X = 2.045790727954667E+09 Y = 2.117187126496111E+09 Z =-1.864029107396173E+07
 VX=-4.947242227895805E+00 VY= 4.414883472717587E+00 VZ= 8.048927328609423E-02
 LT= 9.820666548711526E+03 RG= 2.944161763836605E+09 RR=-2.633646623509108E-01
2459837.500000000 = A.D. 2022-Sep-15 00:00:00.0000 TDB 
 X = 2.045363246482894E+09 Y = 2.117568531287074E+09 Z =-1.863333643873560E+07
 VX=-4.948162182843917E+00 VY= 4.413931100523256E+00 VZ= 8.049765275288467E-02
 LT= 9.820590642028794E+03 RG= 2.944139007585609E+09 RR=-2.634004055298927E-01
2459838.500000000 = A.D. 2022-Sep-16 00:00:00.0000 TDB 
 X = 2.044935685534386E+09 Y = 2.117949853784688E+09 Z =-1.862638107965076E+07
 VX=-4.949081967137024E+00 VY= 4.412978534090924E+00 VZ= 8.050602927939310E-02
 LT= 9.820514725046150E+03 RG= 2.944116248246780E+09 RR=-2.634361400107122E-01
2459839.500000000 = A.D. 2022-Sep-17 00:00:00.0000 TDB 
 X = 2.044508045123889E+09 Y = 2.118331093972172E+09 Z =-1.861942499696088E+07
 VX=-4.950001580735527E+00 VY= 4.412025773445881E+00 VZ= 8.051440286518918E-02
 LT= 9.820438797766110E+03 RG= 2.944093485820867E+09 RR=-2.634718657929340E-01
2459840.500000000 = A.D. 2022-Sep-18 00:00:00.0000 TDB 
 X = 2.044080325266152E+09 Y = 2.118712251832747E+09 Z =-1.861246819092035E+07
 VX=-4.950921023599823E+00 VY= 4.411072818613441E+00 VZ= 8.052277350983994E-02
 LT= 9.820362860191171E+03 RG= 2.944070720308621E+09 RR=-2.635075828761091E-01
2459841.500000000 = A.D. 2022-Sep-19 00:00:00.0000 TDB 
 X = 2.043652525975929E+09 Y = 2.119093327349636E+09 Z =-1.860551066178310E+07
 VX=-4.951840295690314E+00 VY= 4.410119669618934E+00 VZ= 8.053114121291394E-02
 LT= 9.820286912323847E+03 RG= 2.944047951710796E+09 RR=-2.635432912597822E-01
2459842.500000000 = A.D. 2022-Sep-20 00:00:00.0000 TDB 
 X = 2.043224647267977E+09 Y = 2.119474320506065E+09 Z =-1.859855240980339E+07
 VX=-4.952759396967399E+00 VY= 4.409166326487699E+00 VZ= 8.053950597397996E-02
 LT= 9.820210954166640E+03 RG= 2.944025180028142E+09 RR=-2.635789909434909E-01
2459843.500000000 = A.D. 2022-Sep-21 00:00:00.0000 TDB 
 X = 2.042796689157054E+09 Y = 2.119855231285263E+09 Z =-1.859159343523550E+07
 VX=-4.953678327391478E+00 VY= 4.408212789245104E+00 VZ= 8.054786779260592E-02
 LT= 9.820134985722061E+03 RG= 2.944002405261412E+09 RR=-2.636146819267615E-01
